[{"OBJECT_NAME":"STARLINK-4360","OBJECT_ID":"2022-099T","EPOCH":"2026-03-09T21:25:07.915872","MEAN_MOTION":15.01254837,"ECCENTRICITY":2.719e-5,"INCLINATION":97.6052,"RA_OF_ASC_NODE":190.4373,"ARG_OF_PERICENTER":3.0306,"MEAN_ANOMALY":357.0919,"EPHEMERIS_TYPE":0,"CLASSIFICATION_TYPE":"U","NORAD_CAT_ID":53482,"ELEMENT_SET_NO":999,"REV_AT_EPOCH":19601,"BSTAR":7.3224794e-5,"MEAN_MOTION_DOT":8.82e-6,"MEAN_MOTION_DDOT":0},{"OBJECT_NAME":"PEGASUS R\/B","OBJECT_ID":"1994-029B","EPOCH":"2026-03-09T21:33:12.048768","MEAN_MOTION":14.76408324,"ECCENTRICITY":0.01139603,"INCLINATION":81.9597,"RA_OF_ASC_NODE":359.0956,"ARG_OF_PERICENTER":87.6383,"MEAN_ANOMALY":273.7868,"EPHEMERIS_TYPE":0,"CLASSIFICATION_TYPE":"U","NORAD_CAT_ID":23106,"ELEMENT_SET_NO":999,"REV_AT_EPOCH":70062,"BSTAR":0.00028197274,"MEAN_MOTION_DOT":2.205e-5,"MEAN_MOTION_DDOT":0}]
